{
  "norad_id": 56495,
  "name": "STARLINK-5529",
  "history": [
    {
      "epoch": "2026-04-10T04:41:17.202336Z",
      "apogee_km": 573.9140979932581,
      "perigee_km": 570.1982467155904,
      "latitude_deg": -7.494777502672108e-05,
      "longitude_deg": 116.18973220830894,
      "height_km": 574.4347571066194,
      "semi_major_axis_km": 6950.193172354424,
      "eccentricity": 0.00026732,
      "inclination_deg": 70.0013,
      "raan_deg": 24.9441,
      "arg_perigee_deg": 271.4999,
      "mean_anomaly_deg": 88.5853,
      "mean_motion_rev_day": 14.98329909
    },
    {
      "epoch": "2026-04-11T20:44:38.956128Z",
      "apogee_km": 573.9097865283265,
      "perigee_km": 570.2081121657038,
      "latitude_deg": 8.32622783249164e-06,
      "longitude_deg": -130.50382493532194,
      "height_km": 574.4521232343634,
      "semi_major_axis_km": 6950.195949347015,
      "eccentricity": 0.0002663,
      "inclination_deg": 70.0014,
      "raan_deg": 20.7362,
      "arg_perigee_deg": 271.0536,
      "mean_anomaly_deg": 89.0318,
      "mean_motion_rev_day": 14.98329011
    },
    {
      "epoch": "2026-04-13T06:23:27.767904Z",
      "apogee_km": 573.9242117351596,
      "perigee_km": 570.161940256422,
      "latitude_deg": 1.1302784089642822e-06,
      "longitude_deg": 79.87636073599805,
      "height_km": 574.4162288200889,
      "semi_major_axis_km": 6950.1800759957905,
      "eccentricity": 0.00027066,
      "inclination_deg": 70.0011,
      "raan_deg": 17.2016,
      "arg_perigee_deg": 271.6474,
      "mean_anomaly_deg": 88.4375,
      "mean_motion_rev_day": 14.98334144
    },
    {
      "epoch": "2026-04-14T20:50:41.130240Z",
      "apogee_km": 573.9166624687095,
      "perigee_km": 570.1607875069249,
      "latitude_deg": 5.2047137263308465e-05,
      "longitude_deg": -142.5481333175872,
      "height_km": 574.4294551506188,
      "semi_major_axis_km": 6950.1757249878165,
      "eccentricity": 0.0002702,
      "inclination_deg": 70.001,
      "raan_deg": 13.162,
      "arg_perigee_deg": 271.1134,
      "mean_anomaly_deg": 88.9716,
      "mean_motion_rev_day": 14.98335551
    },
    {
      "epoch": "2026-04-15T20:52:42.689856Z",
      "apogee_km": 573.9646358426662,
      "perigee_km": 570.1865002906652,
      "latitude_deg": 4.1751163446234094e-05,
      "longitude_deg": -146.56636522391588,
      "height_km": 574.494111663284,
      "semi_major_axis_km": 6950.212568066666,
      "eccentricity": 0.0002718,
      "inclination_deg": 70.0006,
      "raan_deg": 10.6373,
      "arg_perigee_deg": 270.2626,
      "mean_anomaly_deg": 89.8222,
      "mean_motion_rev_day": 14.98323637
    }
  ]
}